{
  "type": "FeatureCollection",
  "features": [
    {
      "type": "Feature",
      "properties": {
        "norad_id": 30306,
        "name": "FENGYUN 1C DEB",
        "group": "fengyun-1c-debris",
        "lat": 15.99109470659492,
        "lon": -153.39751702887685,
        "alt_km": 872.2278724591179,
        "timestamp": "2025-12-08T23:34:04.244826+00:00",
        "meta_object_name": "FENGYUN 1C DEB",
        "meta_object_id": "1999-025ZT",
        "meta_epoch": "2025-12-08T14:24:00.784512",
        "meta_mean_motion": 14.28173687,
        "meta_eccentricity": 0.01135347,
        "meta_inclination": 98.5869,
        "meta_ra_of_asc_node": 23.745,
        "meta_arg_of_pericenter": 9.7075,
        "meta_mean_anomaly": 350.6263,
        "meta_ephemeris_type": 0,
        "meta_classification_type": "U",
        "meta_norad_cat_id": 30306,
        "meta_element_set_no": 999,
        "meta_rev_at_epoch": 97622,
        "meta_bstar": 0.0016221048,
        "meta_mean_motion_dot": 4.284e-05,
        "meta_mean_motion_ddot": 0,
        "tle_line1": "1 30306U 99025ZT  25342.60000908  .00004284  00000+0  16221-2 0  9997",
        "tle_line2": "2 30306  98.5869  23.7450 0113534   9.7075 350.6263 14.28173687976223"
      },
      "geometry": {
        "type": "Point",
        "coordinates": [
          -153.39751702887685,
          15.99109470659492
        ]
      }
    },
    {
      "type": "Feature",
      "properties": {
        "norad_id": 30309,
        "name": "FENGYUN 1C DEB",
        "group": "fengyun-1c-debris",
        "lat": 5.086153466435033,
        "lon": -139.01460414481633,
        "alt_km": 857.9311006360949,
        "timestamp": "2025-12-08T23:34:04.244836+00:00",
        "meta_object_name": "FENGYUN 1C DEB",
        "meta_object_id": "1999-025ZW",
        "meta_epoch": "2025-12-08T14:06:42.121728",
        "meta_mean_motion": 13.93514747,
        "meta_eccentricity": 0.00932319,
        "meta_inclination": 99.2266,
        "meta_ra_of_asc_node": 39.7635,
        "meta_arg_of_pericenter": 203.0916,
        "meta_mean_anomaly": 156.6042,
        "meta_ephemeris_type": 0,
        "meta_classification_type": "U",
        "meta_norad_cat_id": 30309,
        "meta_element_set_no": 999,
        "meta_rev_at_epoch": 95975,
        "meta_bstar": 0.00065285076,
        "meta_mean_motion_dot": 8.42e-06,
        "meta_mean_motion_ddot": 0,
        "tle_line1": "1 30309U 99025ZW  25342.58798752  .00000842  00000+0  65285-3 0  9999",
        "tle_line2": "2 30309  99.2266  39.7635 0093231 203.0916 156.6042 13.93514747959756"
      },
      "geometry": {
        "type": "Point",
        "coordinates": [
          -139.01460414481633,
          5.086153466435033
        ]
      }
    },
    {
      "type": "Feature",
      "properties": {
        "norad_id": 30310,
        "name": "FENGYUN 1C DEB",
        "group": "fengyun-1c-debris",
        "lat": -70.12907804935463,
        "lon": 157.80758316988076,
        "alt_km": 945.750579155495,
        "timestamp": "2025-12-08T23:34:04.244847+00:00",
        "meta_object_name": "FENGYUN 1C DEB",
        "meta_object_id": "1999-025ZX",
        "meta_epoch": "2025-12-08T13:50:23.175168",
        "meta_mean_motion": 14.08367908,
        "meta_eccentricity": 0.02410972,
        "meta_inclination": 98.6649,
        "meta_ra_of_asc_node": 2.3737,
        "meta_arg_of_pericenter": 9.3071,
        "meta_mean_anomaly": 351.2451,
        "meta_ephemeris_type": 0,
        "meta_classification_type": "U",
        "meta_norad_cat_id": 30310,
        "meta_element_set_no": 999,
        "meta_rev_at_epoch": 96673,
        "meta_bstar": 0.0011503827,
        "meta_mean_motion_dot": 2.529e-05,
        "meta_mean_motion_ddot": 0,
        "tle_line1": "1 30310U 99025ZX  25342.57665712  .00002529  00000+0  11504-2 0  9997",
        "tle_line2": "2 30310  98.6649   2.3737 0241097   9.3071 351.2451 14.08367908966734"
      },
      "geometry": {
        "type": "Point",
        "coordinates": [
          157.80758316988076,
          -70.12907804935463
        ]
      }
    },
    {
      "type": "Feature",
      "properties": {
        "norad_id": 30311,
        "name": "FENGYUN 1C DEB",
        "group": "fengyun-1c-debris",
        "lat": 34.99289561853065,
        "lon": -94.72009645098821,
        "alt_km": 911.4142015402904,
        "timestamp": "2025-12-08T23:34:04.244857+00:00",
        "meta_object_name": "FENGYUN 1C DEB",
        "meta_object_id": "1999-025ZY",
        "meta_epoch": "2025-12-08T12:24:01.902816",
        "meta_mean_motion": 13.77882986,
        "meta_eccentricity": 0.01651465,
        "meta_inclination": 99.1397,
        "meta_ra_of_asc_node": 78.3614,
        "meta_arg_of_pericenter": 208.1672,
        "meta_mean_anomaly": 151.0472,
        "meta_ephemeris_type": 0,
        "meta_classification_type": "U",
        "meta_norad_cat_id": 30311,
        "meta_element_set_no": 999,
        "meta_rev_at_epoch": 94902,
        "meta_bstar": 0.00080277264,
        "meta_mean_motion_dot": 8.47e-06,
        "meta_mean_motion_ddot": 0,
        "tle_line1": "1 30311U 99025ZY  25342.51668869  .00000847  00000+0  80277-3 0  9993",
        "tle_line2": "2 30311  99.1397  78.3614 0165146 208.1672 151.0472 13.77882986949029"
      },
      "geometry": {
        "type": "Point",
        "coordinates": [
          -94.72009645098821,
          34.99289561853065
        ]
      }
    },
    {
      "type": "Feature",
      "properties": {
        "norad_id": 30312,
        "name": "FENGYUN 1C DEB",
        "group": "fengyun-1c-debris",
        "lat": 43.36624971953932,
        "lon": 53.60877111564586,
        "alt_km": 744.3304148807083,
        "timestamp": "2025-12-08T23:34:04.244867+00:00",
        "meta_object_name": "FENGYUN 1C DEB",
        "meta_object_id": "1999-025ZZ",
        "meta_epoch": "2025-12-08T05:22:07.220352",
        "meta_mean_motion": 14.45705978,
        "meta_eccentricity": 0.00117588,
        "meta_inclination": 98.8661,
        "meta_ra_of_asc_node": 61.2951,
        "meta_arg_of_pericenter": 220.5559,
        "meta_mean_anomaly": 199.2078,
        "meta_ephemeris_type": 0,
        "meta_classification_type": "U",
        "meta_norad_cat_id": 30312,
        "meta_element_set_no": 999,
        "meta_rev_at_epoch": 97855,
        "meta_bstar": 0.0031994486,
        "meta_mean_motion_dot": 0.00011307,
        "meta_mean_motion_ddot": 0,
        "tle_line1": "1 30312U 99025ZZ  25342.22369468  .00011307  00000+0  31994-2 0  9999",
        "tle_line2": "2 30312  98.8661  61.2951 0011758 220.5559 199.2078 14.45705978978553"
      },
      "geometry": {
        "type": "Point",
        "coordinates": [
          53.60877111564586,
          43.36624971953932
        ]
      }
    },
    {
      "type": "Feature",
      "properties": {
        "norad_id": 30313,
        "name": "FENGYUN 1C DEB",
        "group": "fengyun-1c-debris",
        "lat": 43.36094801587499,
        "lon": 60.6210483220909,
        "alt_km": 781.1315757589373,
        "timestamp": "2025-12-08T23:34:04.244877+00:00",
        "meta_object_name": "FENGYUN 1C DEB",
        "meta_object_id": "1999-025AAA",
        "meta_epoch": "2025-12-08T04:58:07.735008",
        "meta_mean_motion": 14.25400398,
        "meta_eccentricity": 0.00562948,
        "meta_inclination": 98.8753,
        "meta_ra_of_asc_node": 68.3227,
        "meta_arg_of_pericenter": 349.5665,
        "meta_mean_anomaly": 39.565,
        "meta_ephemeris_type": 0,
        "meta_classification_type": "U",
        "meta_norad_cat_id": 30313,
        "meta_element_set_no": 999,
        "meta_rev_at_epoch": 97025,
        "meta_bstar": 0.0022298329,
        "meta_mean_motion_dot": 5.305e-05,
        "meta_mean_motion_ddot": 0,
        "tle_line1": "1 30313U 99025AAA 25342.20703397  .00005305  00000+0  22298-2 0  9999",
        "tle_line2": "2 30313  98.8753  68.3227 0056294 349.5665  39.5650 14.25400398970251"
      },
      "geometry": {
        "type": "Point",
        "coordinates": [
          60.6210483220909,
          43.36094801587499
        ]
      }
    },
    {
      "type": "Feature",
      "properties": {
        "norad_id": 30314,
        "name": "FENGYUN 1C DEB",
        "group": "fengyun-1c-debris",
        "lat": 34.498938573708365,
        "lon": 168.3372948061617,
        "alt_km": 794.4005496482087,
        "timestamp": "2025-12-08T23:34:04.244887+00:00",
        "meta_object_name": "FENGYUN 1C DEB",
        "meta_object_id": "1999-025AAB",
        "meta_epoch": "2025-12-05T11:25:49.544832",
        "meta_mean_motion": 14.01155189,
        "meta_eccentricity": 0.01425643,
        "meta_inclination": 98.3813,
        "meta_ra_of_asc_node": 170.9323,
        "meta_arg_of_pericenter": 18.3994,
        "meta_mean_anomaly": 342.2256,
        "meta_ephemeris_type": 0,
        "meta_classification_type": "U",
        "meta_norad_cat_id": 30314,
        "meta_element_set_no": 999,
        "meta_rev_at_epoch": 96007,
        "meta_bstar": 0.001626767,
        "meta_mean_motion_dot": 2.631e-05,
        "meta_mean_motion_ddot": 0,
        "tle_line1": "1 30314U 99025AAB 25339.47626788  .00002631  00000+0  16268-2 0  9992",
        "tle_line2": "2 30314  98.3813 170.9323 0142564  18.3994 342.2256 14.01155189960077"
      },
      "geometry": {
        "type": "Point",
        "coordinates": [
          168.3372948061617,
          34.498938573708365
        ]
      }
    }
  ]
}